; generated by PrusaSlicer 2.6.0 on 2024-01-01 at 12:00:00
; estimated printing time (normal mode) = 1h 2m 3s
; filament used [mm] = 1234.56
; filament used [g] = 12.34
; layer_height = 0.2
; nozzle_diameter = 0.4,0.4,0.4,0.4
; filament_type = PETG
M140 S70 ; set bed temp
M104 S230 ; set nozzle temp
M83 ; relative extrusion
G21 ; metric values
G90 ; absolute positioning
G28 ; home all axes
;LAYER_CHANGE
;Z:0.2
;HEIGHT:0.2
G1 Z0.2 F1200
G1 X0 Y0 F3000
;TYPE:Perimeter
G1 X10 Y0 E0.4 F1200
G2 X10 Y10 I0 J5 E0.4
G1 X0 Y10 E0.4
G1 X0 Y0 E0.4
;LAYER_CHANGE
;Z:0.4
;HEIGHT:0.2
G1 Z0.4 F1200
G1 X0 Y0 F3000
G1 X10 Y0 E0.4 F1200
G1 X10 Y10 E0.4
G1 X0 Y10 E0.4
G1 X0 Y0 E0.4
M107
