;FLAVOR:UltiGCode
;TIME:481
;MATERIAL:1
;MATERIAL2:0
;TARGET_MACHINE.NAME:Ultimaker 2+
;NOZZLE_DIAMETER:2.0
;MINX:90.0
;MINY:91.9
;MINZ:0.0
;MAXX:132.9
;MAXY:131.0
;MAXZ:8.4
;Generated with Python / GH
;File created 20260703
; at 6:46:58 PM
;OVERFLOW: 1.0
M82 ;absolute extrusion mode
;END_OF_HEADER
G92 E0
M109 S205
G0 F12000 X5 Y5 Z20
;TYPE:WALL-OUTER
;LAYER_COUNT:2
;LAYER:0
G0 X0 Y0 Z0.2 F600
G1 X10 Y0 Z0.2 E0.4 F600
G1 X10 Y10 Z0.2 E0.8 F600
G1 X0 Y10 Z0.2 E1.2 F600
G1 X0 Y0 Z0.2 E1.6 F600
;LAYER:1
G0 X0 Y0 Z0.4 F600
G1 X10 Y0 Z0.4 E2.0 F600
G1 X10 Y10 Z0.4 E2.4 F600
G1 X0 Y10 Z0.4 E2.8 F600
G1 X0 Y0 Z0.4 E3.2 F600
M107
;End of Gcode
